{"type":"Feature","properties":{"name":"Kraków","osm_id":449696},"geometry":{"type":"Polygon","coordinates":[[[19.79224,50.0118],[19.79469,50.00605],[19.79518,50.00277],[19.79663,49.99737],[19.79567,49.99529],[19.79617,49.99514],[19.79647,49.99454],[19.79832,49.99532],[19.79879,49.99597],[19.80001,49.99578],[19.80078,49.99548],[19.80094,49.99496],[19.80061,49.99481],[19.80089,49.99399],[19.80171,49.99343],[19.80223,49.99337],[19.80277,49.99412],[19.80386,49.99433],[19.80361,49.99296],[19.80599,49.99303],[19.80954,49.99217],[19.80956,49.99292],[19.81035,49.99296],[19.81123,49.99372],[19.81136,49.99403],[19.81101,49.99444],[19.81266,49.99478],[19.81402,49.99432],[19.81475,49.99441],[19.81421,49.99512],[19.81516,49.99581],[19.81833,49.99645],[19.81842,49.99676],[19.81935,49.99699],[19.82194,49.99677],[19.82244,49.99624],[19.83161,49.99604],[19.83707,49.99553],[19.8381,49.99503],[19.84116,49.99481],[19.84266,49.99504],[19.84369,49.99487],[19.84404,49.9945],[19.84901,49.99487],[19.84953,49.99467],[19.84924,49.99267],[19.84825,49.98979],[19.84878,49.98519],[19.85656,49.98551],[19.85988,49.98472],[19.86239,49.98471],[19.86324,49.98374],[19.86444,49.98327],[19.86449,49.98014],[19.86244,49.97983],[19.86238,49.97863],[19.86294,49.97862],[19.86298,49.97657],[19.8607,49.97591],[19.86335,49.97483],[19.86767,49.97448],[19.86893,49.97248],[19.87067,49.97174],[19.8739,49.97142],[19.87944,49.97145],[19.87998,49.97405],[19.88103,49.97472],[19.88218,49.97494],[19.88295,49.97564],[19.88469,49.97611],[19.88544,49.97693],[19.88513,49.97797],[19.88611,49.97855],[19.886,49.97877],[19.88651,49.97919],[19.88728,49.97934],[19.8874,49.98039],[19.8885,49.98064],[19.89176,49.98054],[19.89177,49.98027],[19.89517,49.98062],[19.89626,49.98044],[19.90016,49.98122],[19.90855,49.9815],[19.90965,49.98197],[19.912,49.98131],[19.91261,49.98025],[19.91335,49.97985],[19.91898,49.98],[19.9257,49.98132],[19.92609,49.981],[19.92715,49.9809],[19.92782,49.98028],[19.92742,49.97983],[19.92825,49.97956],[19.92841,49.97915],[19.92954,49.97919],[19.93144,49.97843],[19.93259,49.97879],[19.93244,49.97822],[19.93288,49.97819],[19.93318,49.97771],[19.93298,49.97686],[19.93447,49.97644],[19.93405,49.97557],[19.93777,49.97454],[19.93834,49.97455],[19.93853,49.97484],[19.93907,49.97454],[19.93907,49.97482],[19.93952,49.97471],[19.93957,49.97513],[19.94026,49.97528],[19.9401,49.97487],[19.94074,49.9748],[19.94061,49.97446],[19.9422,49.97437],[19.94239,49.97403],[19.94327,49.97395],[19.94285,49.97334],[19.94377,49.97285],[19.94444,49.97306],[19.94493,49.97261],[19.94492,49.97222],[19.94765,49.97229],[19.94833,49.97207],[19.94897,49.97129],[19.9507,49.97108],[19.95058,49.9707],[19.95123,49.97064],[19.95077,49.97024],[19.95084,49.96986],[19.95171,49.96952],[19.95202,49.96956],[19.95211,49.9701],[19.95297,49.96984],[19.95381,49.97008],[19.95411,49.96947],[19.95501,49.96915],[19.95521,49.96868],[19.95571,49.96866],[19.95539,49.96771],[19.95567,49.96767],[19.95616,49.96771],[19.95617,49.96804],[19.95663,49.96825],[19.95718,49.96826],[19.95753,49.96788],[19.95731,49.96834],[19.95887,49.96825],[19.95946,49.96926],[19.9616,49.96894],[19.96168,49.96833],[19.96248,49.96842],[19.96257,49.96867],[19.96344,49.96856],[19.96288,49.97123],[19.96309,49.97232],[19.9649,49.97302],[19.96704,49.97317],[19.96706,49.97375],[19.9656,49.97648],[19.96485,49.97758],[19.9643,49.97775],[19.96524,49.97789],[19.96562,49.97843],[19.96638,49.97834],[19.96684,49.97885],[19.96843,49.97903],[19.96896,49.97949],[19.96995,49.97952],[19.97094,49.97997],[19.97168,49.97982],[19.97564,49.98085],[19.97696,49.98079],[19.97786,49.98117],[19.98222,49.98103],[19.98259,49.9807],[19.98259,49.98019],[19.98138,49.97823],[19.98224,49.97711],[19.98226,49.97609],[19.98215,49.97519],[19.98107,49.97322],[19.98128,49.97263],[19.99008,49.973],[19.99729,49.97395],[20.00113,49.97568],[20.00339,49.97515],[20.0029,49.97468],[20.0081,49.97504],[20.00767,49.97541],[20.00824,49.97596],[20.00917,49.9761],[20.01002,49.97724],[20.0097,49.98018],[20.01377,49.98229],[20.01602,49.98438],[20.0186,49.98586],[20.01867,49.98632],[20.01543,49.98885],[20.01471,49.99048],[20.01391,49.99135],[20.01345,49.99333],[20.01284,49.99342],[20.01302,49.9936],[20.01223,49.99468],[20.01099,49.99528],[20.0085,49.99553],[20.00708,49.99646],[20.0052,49.99704],[20.00443,49.99697],[20.00414,49.9976],[20.00325,49.99801],[20.00276,49.99923],[20.00348,49.99983],[20.00352,50.00039],[20.00414,50.00119],[20.00575,50.00173],[20.00631,50.00249],[20.01828,50.00433],[20.01881,50.00311],[20.02215,50.00325],[20.0236,50.00301],[20.02848,49.99918],[20.02919,49.99929],[20.02932,49.99962],[20.02889,50.0011],[20.03101,50.00091],[20.0357,50.00141],[20.03773,50.001],[20.03917,49.99983],[20.04739,49.99898],[20.04797,49.99909],[20.04779,50.00165],[20.04828,50.00417],[20.0496,50.00429],[20.05161,50.00383],[20.05517,50.00411],[20.05516,50.0046],[20.05728,50.00471],[20.05829,50.00566],[20.06075,50.00533],[20.06159,50.00578],[20.06182,50.00625],[20.06233,50.00632],[20.06256,50.00684],[20.06235,50.00762],[20.06303,50.00813],[20.06567,50.00779],[20.06626,50.00903],[20.06739,50.00977],[20.06788,50.0117],[20.06766,50.01309],[20.06908,50.01575],[20.06975,50.01833],[20.06843,50.022],[20.06716,50.02219],[20.06486,50.02427],[20.0677,50.02545],[20.06911,50.02713],[20.07227,50.02975],[20.07285,50.03152],[20.07357,50.03219],[20.08171,50.03426],[20.08162,50.03469],[20.07973,50.0358],[20.082,50.03672],[20.08381,50.0379],[20.08198,50.03891],[20.08102,50.03871],[20.08033,50.0407],[20.0817,50.04078],[20.08231,50.04128],[20.08368,50.04156],[20.08564,50.04296],[20.08626,50.04384],[20.08799,50.04489],[20.0891,50.04482],[20.0893,50.04443],[20.09088,50.04365],[20.09171,50.04263],[20.09163,50.04225],[20.09228,50.04207],[20.09155,50.03959],[20.09169,50.03869],[20.09218,50.03802],[20.09402,50.03715],[20.09596,50.03696],[20.09937,50.0378],[20.10319,50.04118],[20.10437,50.04128],[20.10686,50.04244],[20.11575,50.04259],[20.1193,50.04181],[20.12278,50.04031],[20.12506,50.03973],[20.12766,50.03982],[20.13043,50.04091],[20.1353,50.0449],[20.13929,50.04594],[20.14226,50.04575],[20.15351,50.04306],[20.15954,50.04283],[20.16656,50.04385],[20.18385,50.04802],[20.18853,50.04834],[20.19286,50.04753],[20.19856,50.04469],[20.20112,50.04386],[20.20505,50.04364],[20.20781,50.04414],[20.20918,50.04479],[20.21029,50.0458],[20.21126,50.0479],[20.21302,50.05033],[20.21486,50.0519],[20.21735,50.05343],[20.21226,50.05769],[20.20636,50.06501],[20.20563,50.06517],[20.20438,50.06482],[20.20264,50.06583],[20.19918,50.067],[20.19896,50.06815],[20.19755,50.06915],[20.19301,50.07047],[20.19275,50.07126],[20.19296,50.07228],[20.19445,50.07343],[20.19535,50.07372],[20.19523,50.07396],[20.19957,50.07424],[20.19946,50.07487],[20.19561,50.0764],[20.19553,50.07814],[20.19459,50.07822],[20.19461,50.07878],[20.19361,50.07911],[20.19335,50.07963],[20.19283,50.07979],[20.19269,50.08044],[20.19002,50.08199],[20.18977,50.08268],[20.18997,50.08397],[20.18931,50.08474],[20.1885,50.0851],[20.18559,50.08537],[20.18493,50.08607],[20.18919,50.08645],[20.19234,50.0874],[20.19284,50.08782],[20.19174,50.09165],[20.19163,50.09748],[20.19222,50.10057],[20.1931,50.10322],[20.19506,50.10541],[20.19538,50.10698],[20.19613,50.10826],[20.19789,50.10851],[20.19963,50.10962],[20.2009,50.11002],[20.20224,50.11112],[20.20502,50.11113],[20.20573,50.11231],[20.20908,50.11556],[20.20398,50.11596],[20.20386,50.11715],[20.20477,50.11739],[20.20407,50.11767],[20.20162,50.11749],[20.20129,50.12043],[20.20027,50.12048],[20.20029,50.12021],[20.19898,50.12057],[20.19779,50.11964],[20.19625,50.11968],[20.19593,50.11869],[20.19549,50.11849],[20.19298,50.11967],[20.1925,50.11963],[20.19103,50.11905],[20.18975,50.1178],[20.18686,50.11822],[20.18535,50.11676],[20.18245,50.11784],[20.18157,50.11663],[20.17981,50.11723],[20.17878,50.11834],[20.17494,50.11979],[20.17422,50.11902],[20.17338,50.11908],[20.17319,50.11882],[20.17239,50.12039],[20.16581,50.12051],[20.16585,50.12153],[20.15906,50.12161],[20.1592,50.1208],[20.15638,50.11898],[20.15634,50.11857],[20.15434,50.11946],[20.15301,50.11882],[20.15148,50.11704],[20.14688,50.11434],[20.14466,50.11146],[20.14311,50.10647],[20.13794,50.10657],[20.13549,50.10688],[20.13171,50.10683],[20.12755,50.10737],[20.12314,50.10845],[20.12085,50.10846],[20.11998,50.11645],[20.11855,50.11677],[20.11796,50.11628],[20.11726,50.11678],[20.11483,50.11699],[20.1114,50.1169],[20.11135,50.1165],[20.10838,50.11673],[20.09625,50.11935],[20.09422,50.1163],[20.09411,50.11479],[20.08816,50.11346],[20.08795,50.1114],[20.08533,50.11153],[20.08436,50.11123],[20.08418,50.11025],[20.08372,50.10981],[20.08177,50.10957],[20.07838,50.10832],[20.07728,50.10822],[20.07549,50.10949],[20.07897,50.11241],[20.07645,50.11296],[20.07026,50.11274],[20.07016,50.11393],[20.06705,50.11402],[20.06274,50.11345],[20.06159,50.11353],[20.06179,50.11427],[20.05848,50.11469],[20.05807,50.11374],[20.05643,50.1126],[20.0535,50.11282],[20.05252,50.11209],[20.05187,50.11064],[20.05072,50.11119],[20.05036,50.11094],[20.05106,50.11056],[20.05076,50.11029],[20.04695,50.10931],[20.04547,50.11116],[20.04471,50.11032],[20.04418,50.11069],[20.04227,50.11266],[20.04192,50.11349],[20.04001,50.11335],[20.03708,50.11274],[20.03694,50.11133],[20.03616,50.11067],[20.03601,50.11017],[20.03523,50.10999],[20.0358,50.10862],[20.0341,50.10847],[20.03403,50.10874],[20.03162,50.10788],[20.03004,50.10589],[20.028,50.10577],[20.02763,50.10436],[20.02424,50.10394],[20.0221,50.10518],[20.01757,50.10644],[20.00459,50.10716],[19.99483,50.10701],[19.99205,50.10653],[19.9895,50.10536],[19.98785,50.10523],[19.98667,50.10478],[19.98136,50.10557],[19.98072,50.10496],[19.97906,50.10582],[19.97757,50.10586],[19.97063,50.10721],[19.96824,50.10852],[19.96327,50.1102],[19.96042,50.10848],[19.95816,50.10831],[19.95731,50.10939],[19.95744,50.1106],[19.9559,50.11052],[19.95367,50.11249],[19.9512,50.11407],[19.94876,50.11654],[19.94733,50.11934],[19.94319,50.11882],[19.94131,50.11904],[19.94017,50.11893],[19.93983,50.1172],[19.93997,50.11625],[19.93526,50.11553],[19.93543,50.11516],[19.92941,50.11412],[19.92774,50.11351],[19.92729,50.11462],[19.92494,50.11407],[19.92574,50.1124],[19.92542,50.1118],[19.92444,50.1113],[19.92536,50.11012],[19.92603,50.10812],[19.92721,50.10728],[19.928,50.10786],[19.92936,50.10771],[19.92931,50.10818],[19.9271,50.11025],[19.9276,50.11039],[19.92842,50.11027],[19.93106,50.10863],[19.9312,50.10747],[19.93049,50.10684],[19.92936,50.10665],[19.93079,50.10481],[19.92887,50.10373],[19.92814,50.10433],[19.92815,50.10492],[19.92769,50.10508],[19.92697,50.10481],[19.91878,50.10134],[19.91889,50.10019],[19.91511,50.10093],[19.91406,50.10561],[19.90868,50.11781],[19.90588,50.12098],[19.90469,50.12212],[19.90241,50.12338],[19.9005,50.12551],[19.89838,50.12501],[19.89829,50.12534],[19.89937,50.12542],[19.89959,50.1258],[19.89833,50.12568],[19.89831,50.12613],[19.89251,50.12608],[19.89256,50.12434],[19.89047,50.12401],[19.89134,50.12308],[19.89141,50.12251],[19.88952,50.12276],[19.88442,50.12216],[19.88226,50.12144],[19.88078,50.12049],[19.87891,50.11831],[19.87864,50.11716],[19.8768,50.11352],[19.87667,50.11258],[19.87527,50.11105],[19.86736,50.10745],[19.86332,50.10733],[19.86183,50.10595],[19.86357,50.10262],[19.86434,50.10175],[19.86472,50.10024],[19.86543,50.09951],[19.86661,50.1],[19.86737,50.09918],[19.86158,50.09266],[19.85862,50.09351],[19.85601,50.0936],[19.85187,50.09443],[19.84499,50.09222],[19.8431,50.09238],[19.84017,50.09149],[19.83904,50.09066],[19.83776,50.09046],[19.83647,50.08934],[19.83557,50.08959],[19.83437,50.08831],[19.83194,50.08854],[19.82983,50.08812],[19.828,50.0858],[19.82369,50.08342],[19.82328,50.08259],[19.81936,50.08173],[19.81829,50.08099],[19.81125,50.08016],[19.80943,50.07937],[19.80829,50.07839],[19.80833,50.07703],[19.8061,50.07226],[19.8017,50.06921],[19.80461,50.06455],[19.80453,50.0621],[19.80929,50.061],[19.80984,50.05978],[19.8109,50.05916],[19.8112,50.05846],[19.81587,50.05935],[19.81984,50.05822],[19.82194,50.05822],[19.82073,50.0568],[19.82071,50.05527],[19.82012,50.05413],[19.8195,50.05146],[19.81831,50.05028],[19.81774,50.0491],[19.81129,50.04332],[19.81068,50.04167],[19.81064,50.04065],[19.81246,50.03983],[19.81285,50.0392],[19.81258,50.03768],[19.81343,50.03541],[19.81447,50.03491],[19.81571,50.0337],[19.81866,50.03234],[19.82107,50.03189],[19.82633,50.03241],[19.82895,50.02692],[19.8291,50.02582],[19.82869,50.02472],[19.82771,50.02376],[19.82181,50.02087],[19.81859,50.02037],[19.81616,50.02096],[19.81517,50.02151],[19.81234,50.02543],[19.81159,50.02585],[19.8094,50.02654],[19.80791,50.02655],[19.8059,50.02609],[19.80428,50.02522],[19.80261,50.02364],[19.80088,50.02033],[19.80043,50.01827],[19.79927,50.0168],[19.79755,50.0156],[19.79387,50.0144],[19.79265,50.01307],[19.79224,50.0118]]]}}