{"type":"FeatureCollection","features":[{"type":"Feature","properties":{"name":"Wróżenice","place":"quarter","sector":"D18"},"geometry":{"type":"Point","coordinates":[20.18576,50.11315]}},{"type":"Feature","properties":{"name":"Wadów","place":"quarter","sector":"D17"},"geometry":{"type":"Point","coordinates":[20.12384,50.09842]}},{"type":"Feature","properties":{"name":"Stryjów","place":"neighbourhood","sector":"D18"},"geometry":{"type":"Point","coordinates":[20.14338,50.05837]}},{"type":"Feature","properties":{"name":"Nowy Prokocim","place":"neighbourhood","sector":"D12"},"geometry":{"type":"Point","coordinates":[20.00572,50.01551]}},{"type":"Feature","properties":{"name":"Łuczanowice","place":"quarter","sector":"D17"},"geometry":{"type":"Point","coordinates":[20.10944,50.10867]}},{"type":"Feature","properties":{"name":"Lubocza","place":"quarter","sector":"D17"},"geometry":{"type":"Point","coordinates":[20.08714,50.09563]}},{"type":"Feature","properties":{"name":"Kantorowice","place":"quarter","sector":"D17"},"geometry":{"type":"Point","coordinates":[20.05602,50.11064]}},{"type":"Feature","properties":{"name":"Grębałów","place":"quarter","sector":"D17"},"geometry":{"type":"Point","coordinates":[20.07375,50.09765]}},{"type":"Feature","properties":{"name":"Przylasek","place":"neighbourhood","sector":"D18"},"geometry":{"type":"Point","coordinates":[20.1282,50.05044]}},{"type":"Feature","properties":{"name":"Dłubnia","place":"neighbourhood","sector":"D17"},"geometry":{"type":"Point","coordinates":[20.04054,50.0957]}},{"type":"Feature","properties":{"name":"Tonie","place":"quarter","sector":"D04"},"geometry":{"type":"Point","coordinates":[19.89789,50.11283]}},{"type":"Feature","properties":{"name":"Mydlniki","place":"quarter","sector":"D06"},"geometry":{"type":"Point","coordinates":[19.84618,50.08365]}},{"type":"Feature","properties":{"name":"Łobzów","place":"quarter","sector":"D05"},"geometry":{"type":"Point","coordinates":[19.90778,50.07527]}},{"type":"Feature","properties":{"name":"Krowodrza","place":"suburb","sector":"D05"},"geometry":{"type":"Point","coordinates":[19.92897,50.07885]}},{"type":"Feature","properties":{"name":"Kostrze","place":"quarter","sector":"D08"},"geometry":{"type":"Point","coordinates":[19.85548,50.03286]}},{"type":"Feature","properties":{"name":"Piaski Nowe","place":"neighbourhood","sector":"D11"},"geometry":{"type":"Point","coordinates":[19.97314,50.0129]}},{"type":"Feature","properties":{"name":"Nowy Kleparz","place":"neighbourhood","sector":"D05"},"geometry":{"type":"Point","coordinates":[19.9359,50.07456]}},{"type":"Feature","properties":{"name":"Tyniec","place":"quarter","sector":"D08"},"geometry":{"type":"Point","coordinates":[19.80902,50.01574]}},{"type":"Feature","properties":{"name":"Rżąka","place":"quarter","sector":"D12"},"geometry":{"type":"Point","coordinates":[20.00925,50.00701]}},{"type":"Feature","properties":{"name":"Zesławice","place":"quarter","sector":"D17"},"geometry":{"type":"Point","coordinates":[20.04183,50.1048]}},{"type":"Feature","properties":{"name":"Kosocice","place":"quarter","sector":"D10"},"geometry":{"type":"Point","coordinates":[19.9936,49.99538]}},{"type":"Feature","properties":{"name":"Rajsko","place":"quarter","sector":"D10"},"geometry":{"type":"Point","coordinates":[19.96897,49.98719]}},{"type":"Feature","properties":{"name":"Soboniowice","place":"quarter","sector":"D10"},"geometry":{"type":"Point","coordinates":[19.98978,49.98]}},{"type":"Feature","properties":{"name":"Swoszowice","place":"suburb","sector":"D10"},"geometry":{"type":"Point","coordinates":[19.94313,49.99241]}},{"type":"Feature","properties":{"name":"Wróblowice","place":"quarter","sector":"D10"},"geometry":{"type":"Point","coordinates":[19.94683,49.98127]}},{"type":"Feature","properties":{"name":"Olszanica","place":"quarter","sector":"D07"},"geometry":{"type":"Point","coordinates":[19.83425,50.07261]}},{"type":"Feature","properties":{"name":"Stradom","place":"quarter","sector":"D01"},"geometry":{"type":"Point","coordinates":[19.94065,50.05298]}},{"type":"Feature","properties":{"name":"Holendry","place":"neighbourhood","sector":"D18"},"geometry":{"type":"Point","coordinates":[20.11405,50.04892]}},{"type":"Feature","properties":{"name":"Osiedle \"Kurdwanów Nowy\"","place":"neighbourhood","sector":"D11"},"geometry":{"type":"Point","coordinates":[19.95399,50.00877]}},{"type":"Feature","properties":{"name":"Grzegórzki","place":"suburb","sector":"D02"},"geometry":{"type":"Point","coordinates":[19.96515,50.05932]}},{"type":"Feature","properties":{"name":"Osiedle Podwawelskie","place":"neighbourhood","sector":"D08"},"geometry":{"type":"Point","coordinates":[19.93043,50.0438]}},{"type":"Feature","properties":{"name":"Salwator","place":"neighbourhood","sector":"D07"},"geometry":{"type":"Point","coordinates":[19.91297,50.05284]}},{"type":"Feature","properties":{"name":"Beszcz","place":"neighbourhood","sector":"D14"},"geometry":{"type":"Point","coordinates":[19.99643,50.0621]}},{"type":"Feature","properties":{"name":"Czarna Wieś","place":"quarter","sector":"D05"},"geometry":{"type":"Point","coordinates":[19.91469,50.06584]}},{"type":"Feature","properties":{"name":"Nowa Wieś","place":"quarter","sector":"D05"},"geometry":{"type":"Point","coordinates":[19.92172,50.07113]}},{"type":"Feature","properties":{"name":"Węgrzynowice","place":"quarter","sector":"D17"},"geometry":{"type":"Point","coordinates":[20.15599,50.11179]}},{"type":"Feature","properties":{"name":"Barycz","place":"neighbourhood","sector":"D10"},"geometry":{"type":"Point","coordinates":[20.006,49.98899]}},{"type":"Feature","properties":{"name":"Małe Błonia","place":"quarter","sector":"D05"},"geometry":{"type":"Point","coordinates":[19.89483,50.06883]}},{"type":"Feature","properties":{"name":"Półwsie Zwierzynieckie","place":"neighbourhood","sector":"D07"},"geometry":{"type":"Point","coordinates":[19.91897,50.05517]}},{"type":"Feature","properties":{"name":"Zwierzyniec","place":"suburb","sector":"D07"},"geometry":{"type":"Point","coordinates":[19.89126,50.05802]}},{"type":"Feature","properties":{"name":"Bodzów","place":"quarter","sector":"D08"},"geometry":{"type":"Point","coordinates":[19.87111,50.04081]}},{"type":"Feature","properties":{"name":"Pychowice","place":"quarter","sector":"D08"},"geometry":{"type":"Point","coordinates":[19.89315,50.03492]}},{"type":"Feature","properties":{"name":"Skotniki","place":"quarter","sector":"D08"},"geometry":{"type":"Point","coordinates":[19.87437,50.01674]}},{"type":"Feature","properties":{"name":"Kobierzyn","place":"quarter","sector":"D08"},"geometry":{"type":"Point","coordinates":[19.89193,50.0085]}},{"type":"Feature","properties":{"name":"Kliny Zacisze","place":"neighbourhood","sector":"D10"},"geometry":{"type":"Point","coordinates":[19.89728,49.99983]}},{"type":"Feature","properties":{"name":"Sidzina","place":"quarter","sector":"D08"},"geometry":{"type":"Point","coordinates":[19.87222,49.98827]}},{"type":"Feature","properties":{"name":"Dębniki Zachód","place":"neighbourhood","sector":"D08"},"geometry":{"type":"Point","coordinates":[19.90589,50.04123]}},{"type":"Feature","properties":{"name":"Dębniki","place":"quarter","sector":"D08"},"geometry":{"type":"Point","coordinates":[19.92704,50.05186]}},{"type":"Feature","properties":{"name":"Zakrzówek","place":"quarter","sector":"D08"},"geometry":{"type":"Point","coordinates":[19.91833,50.04141]}},{"type":"Feature","properties":{"name":"Łagiewniki","place":"quarter","sector":"D09"},"geometry":{"type":"Point","coordinates":[19.93937,50.02256]}},{"type":"Feature","properties":{"name":"Stare Podgórze","place":"quarter","sector":"D13"},"geometry":{"type":"Point","coordinates":[19.94931,50.04442]}},{"type":"Feature","properties":{"name":"Płaszów","place":"quarter","sector":"D13"},"geometry":{"type":"Point","coordinates":[19.99262,50.03998]}},{"type":"Feature","properties":{"name":"Zabłocie","place":"quarter","sector":"D13"},"geometry":{"type":"Point","coordinates":[19.9735,50.05109]}},{"type":"Feature","properties":{"name":"Bielany","place":"quarter","sector":"D07"},"geometry":{"type":"Point","coordinates":[19.82141,50.04014]}},{"type":"Feature","properties":{"name":"Wola Justowska","place":"quarter","sector":"D07"},"geometry":{"type":"Point","coordinates":[19.8688,50.06673]}},{"type":"Feature","properties":{"name":"Żabiniec","place":"quarter","sector":"D04"},"geometry":{"type":"Point","coordinates":[19.94174,50.08593]}},{"type":"Feature","properties":{"name":"Olsza II","place":"neighbourhood","sector":"D03"},"geometry":{"type":"Point","coordinates":[19.96147,50.08142]}},{"type":"Feature","properties":{"name":"Rakowice","place":"quarter","sector":"D03"},"geometry":{"type":"Point","coordinates":[19.9752,50.076]}},{"type":"Feature","properties":{"name":"Kleparz","place":"quarter","sector":"D01"},"geometry":{"type":"Point","coordinates":[19.94199,50.07004]}},{"type":"Feature","properties":{"name":"Osiedle Oficerskie","place":"quarter","sector":"D02"},"geometry":{"type":"Point","coordinates":[19.96481,50.07027]}},{"type":"Feature","properties":{"name":"Kazimierz","place":"quarter","sector":"D01"},"geometry":{"type":"Point","coordinates":[19.94495,50.05186]}},{"type":"Feature","properties":{"name":"Nowy Świat","place":"quarter","sector":"D01"},"geometry":{"type":"Point","coordinates":[19.93242,50.05766]}},{"type":"Feature","properties":{"name":"Czyżyny","place":"suburb","sector":"D14"},"geometry":{"type":"Point","coordinates":[20.01093,50.07252]}},{"type":"Feature","properties":{"name":"Dąbie","place":"neighbourhood","sector":"D02"},"geometry":{"type":"Point","coordinates":[19.97914,50.05944]}},{"type":"Feature","properties":{"name":"Kujawy","place":"quarter","sector":"D18"},"geometry":{"type":"Point","coordinates":[20.09748,50.05828]}},{"type":"Feature","properties":{"name":"Mogiła Wschód","place":"neighbourhood","sector":"D18"},"geometry":{"type":"Point","coordinates":[20.08558,50.05872]}},{"type":"Feature","properties":{"name":"Mogiła","place":"quarter","sector":"D18"},"geometry":{"type":"Point","coordinates":[20.06149,50.06272]}},{"type":"Feature","properties":{"name":"Pleszów","place":"quarter","sector":"D18"},"geometry":{"type":"Point","coordinates":[20.10831,50.06958]}},{"type":"Feature","properties":{"name":"Branice","place":"quarter","sector":"D18"},"geometry":{"type":"Point","coordinates":[20.1397,50.0687]}},{"type":"Feature","properties":{"name":"Kościelniki","place":"quarter","sector":"D18"},"geometry":{"type":"Point","coordinates":[20.17971,50.09547]}},{"type":"Feature","properties":{"name":"Przylasek Rusiecki","place":"quarter","sector":"D18"},"geometry":{"type":"Point","coordinates":[20.16099,50.05406]}},{"type":"Feature","properties":{"name":"Ruszcza","place":"quarter","sector":"D18"},"geometry":{"type":"Point","coordinates":[20.1463,50.08771]}},{"type":"Feature","properties":{"name":"Prokocim","place":"quarter","sector":"D12"},"geometry":{"type":"Point","coordinates":[19.99217,50.02267]}},{"type":"Feature","properties":{"name":"Przewóz","place":"quarter","sector":"D13"},"geometry":{"type":"Point","coordinates":[20.06218,50.04174]}},{"type":"Feature","properties":{"name":"Rybitwy","place":"quarter","sector":"D13"},"geometry":{"type":"Point","coordinates":[20.03542,50.04289]}},{"type":"Feature","properties":{"name":"Kozłówka","place":"quarter","sector":"D12"},"geometry":{"type":"Point","coordinates":[19.98252,50.01865]}},{"type":"Feature","properties":{"name":"Wola Duchacka","place":"quarter","sector":"D11"},"geometry":{"type":"Point","coordinates":[19.96034,50.02072]}},{"type":"Feature","properties":{"name":"Cegielniana","place":"quarter","sector":"D09"},"geometry":{"type":"Point","coordinates":[19.93112,50.02589]}},{"type":"Feature","properties":{"name":"Wzgórza Krzesławickie","place":"suburb","sector":"D17"},"geometry":{"type":"Point","coordinates":[20.0528,50.09837]}},{"type":"Feature","properties":{"name":"Bagno","place":"neighbourhood","sector":"D08"},"geometry":{"type":"Point","coordinates":[19.83204,50.00762]}},{"type":"Feature","properties":{"name":"Azory","place":"quarter","sector":"D04"},"geometry":{"type":"Point","coordinates":[19.90722,50.08523]}},{"type":"Feature","properties":{"name":"Bania","place":"neighbourhood","sector":"D10"},"geometry":{"type":"Point","coordinates":[19.93513,49.99564]}},{"type":"Feature","properties":{"name":"Bieńczyce","place":"suburb","sector":"D16"},"geometry":{"type":"Point","coordinates":[20.03194,50.08667]}},{"type":"Feature","properties":{"name":"Bieżanów","place":"quarter","sector":"D12"},"geometry":{"type":"Point","coordinates":[20.0284,50.01463]}},{"type":"Feature","properties":{"name":"Bieżanów-Prokocim","place":"suburb","sector":"D12"},"geometry":{"type":"Point","coordinates":[20.0156,50.01419]}},{"type":"Feature","properties":{"name":"Borek Fałęcki","place":"quarter","sector":"D09"},"geometry":{"type":"Point","coordinates":[19.92657,50.0143]}},{"type":"Feature","properties":{"name":"Bronowice Małe","place":"quarter","sector":"D06"},"geometry":{"type":"Point","coordinates":[19.87754,50.08806]}},{"type":"Feature","properties":{"name":"Bronowice Wielkie","place":"quarter","sector":"D04"},"geometry":{"type":"Point","coordinates":[19.88222,50.09444]}},{"type":"Feature","properties":{"name":"Brzyzek","place":"neighbourhood","sector":"D08"},"geometry":{"type":"Point","coordinates":[19.87674,50.00692]}},{"type":"Feature","properties":{"name":"Budzyń","place":"neighbourhood","sector":"D04"},"geometry":{"type":"Point","coordinates":[19.89383,50.11129]}},{"type":"Feature","properties":{"name":"Bugaj","place":"neighbourhood","sector":"D13"},"geometry":{"type":"Point","coordinates":[20.07618,50.04604]}},{"type":"Feature","properties":{"name":"Błonie","place":"neighbourhood","sector":"D18"},"geometry":{"type":"Point","coordinates":[20.17455,50.06985]}},{"type":"Feature","properties":{"name":"Błonie-Beszcz","place":"neighbourhood","sector":"D14"},"geometry":{"type":"Point","coordinates":[20.00058,50.05537]}},{"type":"Feature","properties":{"name":"Chałupki Górne","place":"neighbourhood","sector":"D18"},"geometry":{"type":"Point","coordinates":[20.12573,50.05461]}},{"type":"Feature","properties":{"name":"Chałupki","place":"neighbourhood","sector":"D18"},"geometry":{"type":"Point","coordinates":[20.12934,50.05018]}},{"type":"Feature","properties":{"name":"Chełm","place":"quarter","sector":"D07"},"geometry":{"type":"Point","coordinates":[19.84902,50.06753]}},{"type":"Feature","properties":{"name":"Chlebiczna","place":"neighbourhood","sector":"D08"},"geometry":{"type":"Point","coordinates":[19.87528,49.98639]}},{"type":"Feature","properties":{"name":"Cichy Kącik","place":"neighbourhood","sector":"D05"},"geometry":{"type":"Point","coordinates":[19.90457,50.06495]}},{"type":"Feature","properties":{"name":"Cło","place":"neighbourhood","sector":"D18"},"geometry":{"type":"Point","coordinates":[20.1855,50.08046]}},{"type":"Feature","properties":{"name":"Dwór","place":"neighbourhood","sector":"D10"},"geometry":{"type":"Point","coordinates":[19.91655,49.98594]}},{"type":"Feature","properties":{"name":"Dąbrowy","place":"neighbourhood","sector":"D10"},"geometry":{"type":"Point","coordinates":[19.89571,49.98344]}},{"type":"Feature","properties":{"name":"Gaik","place":"neighbourhood","sector":"D10"},"geometry":{"type":"Point","coordinates":[19.91292,49.99005]}},{"type":"Feature","properties":{"name":"Gaj","place":"neighbourhood","sector":"D10"},"geometry":{"type":"Point","coordinates":[19.95977,49.97197]}},{"type":"Feature","properties":{"name":"Galatowski Koniec","place":"neighbourhood","sector":"D10"},"geometry":{"type":"Point","coordinates":[19.91917,49.98722]}},{"type":"Feature","properties":{"name":"Golikówka","place":"neighbourhood","sector":"D13"},"geometry":{"type":"Point","coordinates":[20.02348,50.047]}},{"type":"Feature","properties":{"name":"Gibkówka","place":"neighbourhood","sector":"D10"},"geometry":{"type":"Point","coordinates":[19.94783,49.98889]}},{"type":"Feature","properties":{"name":"Górka Narodowa","place":"quarter","sector":"D04"},"geometry":{"type":"Point","coordinates":[19.95812,50.10033]}},{"type":"Feature","properties":{"name":"Górka Kościelnicka","place":"neighbourhood","sector":"D18"},"geometry":{"type":"Point","coordinates":[20.1704,50.10761]}},{"type":"Feature","properties":{"name":"Jemiołki","place":"neighbourhood","sector":"D12"},"geometry":{"type":"Point","coordinates":[20.0044,50.0242]}},{"type":"Feature","properties":{"name":"Kaczeńce","place":"neighbourhood","sector":"D10"},"geometry":{"type":"Point","coordinates":[19.93729,49.99929]}},{"type":"Feature","properties":{"name":"Kaczorówka","place":"neighbourhood","sector":"D04"},"geometry":{"type":"Point","coordinates":[19.90722,50.10709]}},{"type":"Feature","properties":{"name":"Kaim","place":"neighbourhood","sector":"D12"},"geometry":{"type":"Point","coordinates":[20.04192,50.00685]}},{"type":"Feature","properties":{"name":"Kliniec","place":"neighbourhood","sector":"D11"},"geometry":{"type":"Point","coordinates":[19.98243,50.00887]}},{"type":"Feature","properties":{"name":"Kliny","place":"quarter","sector":"D10"},"geometry":{"type":"Point","coordinates":[19.91217,49.99998]}},{"type":"Feature","properties":{"name":"Kopalina","place":"neighbourhood","sector":"D10"},"geometry":{"type":"Point","coordinates":[19.98862,49.97519]}},{"type":"Feature","properties":{"name":"Kopanina","place":"neighbourhood","sector":"D18"},"geometry":{"type":"Point","coordinates":[20.10532,50.05829]}},{"type":"Feature","properties":{"name":"Kopeć","place":"neighbourhood","sector":"D04"},"geometry":{"type":"Point","coordinates":[19.90531,50.10547]}},{"type":"Feature","properties":{"name":"Koło Tynieckie","place":"neighbourhood","sector":"D08"},"geometry":{"type":"Point","coordinates":[19.83278,50.03167]}},{"type":"Feature","properties":{"name":"Krakówka","place":"neighbourhood","sector":"D10"},"geometry":{"type":"Point","coordinates":[19.93946,49.98082]}},{"type":"Feature","properties":{"name":"Krowodrza Górka","place":"quarter","sector":"D04"},"geometry":{"type":"Point","coordinates":[19.92998,50.08877]}},{"type":"Feature","properties":{"name":"Krzemionki","place":"neighbourhood","sector":"D18"},"geometry":{"type":"Point","coordinates":[20.17704,50.09987]}},{"type":"Feature","properties":{"name":"Krzesławice","place":"quarter","sector":"D17"},"geometry":{"type":"Point","coordinates":[20.05473,50.08399]}},{"type":"Feature","properties":{"name":"Księdzowe Pole","place":"neighbourhood","sector":"D13"},"geometry":{"type":"Point","coordinates":[20.07732,50.03872]}},{"type":"Feature","properties":{"name":"Kępa Grabska","place":"neighbourhood","sector":"D18"},"geometry":{"type":"Point","coordinates":[20.15336,50.04739]}},{"type":"Feature","properties":{"name":"Lasowe Domy","place":"neighbourhood","sector":"D10"},"geometry":{"type":"Point","coordinates":[19.97833,49.99611]}},{"type":"Feature","properties":{"name":"Lasówka","place":"neighbourhood","sector":"D13"},"geometry":{"type":"Point","coordinates":[20.01512,50.04048]}},{"type":"Feature","properties":{"name":"Lazaret","place":"neighbourhood","sector":"D11"},"geometry":{"type":"Point","coordinates":[19.97643,50.00809]}},{"type":"Feature","properties":{"name":"Lesisko","place":"neighbourhood","sector":"D18"},"geometry":{"type":"Point","coordinates":[20.04383,50.05605]}},{"type":"Feature","properties":{"name":"Luboń","place":"neighbourhood","sector":"D10"},"geometry":{"type":"Point","coordinates":[19.98458,49.99656]}},{"type":"Feature","properties":{"name":"Ludwinów","place":"quarter","sector":"D08"},"geometry":{"type":"Point","coordinates":[19.93041,50.04452]}},{"type":"Feature","properties":{"name":"Na Grobli","place":"neighbourhood","sector":"D08"},"geometry":{"type":"Point","coordinates":[19.80486,50.0152]}},{"type":"Feature","properties":{"name":"Nad Potokiem","place":"neighbourhood","sector":"D12"},"geometry":{"type":"Point","coordinates":[20.01134,50.01249]}},{"type":"Feature","properties":{"name":"Niebyła","place":"neighbourhood","sector":"D10"},"geometry":{"type":"Point","coordinates":[19.96146,49.98787]}},{"type":"Feature","properties":{"name":"Niwy","place":"neighbourhood","sector":"D10"},"geometry":{"type":"Point","coordinates":[19.97264,49.99236]}},{"type":"Feature","properties":{"name":"Ogrody Płaszów","place":"neighbourhood","sector":"D13"},"geometry":{"type":"Point","coordinates":[19.99297,50.04798]}},{"type":"Feature","properties":{"name":"Opatkowice-Łysa Góra","place":"neighbourhood","sector":"D10"},"geometry":{"type":"Point","coordinates":[19.93089,49.98679]}},{"type":"Feature","properties":{"name":"Osiedle 2 Pułku Lotniczego","place":"neighbourhood","sector":"D14"},"geometry":{"type":"Point","coordinates":[20.00721,50.07764]}},{"type":"Feature","properties":{"name":"Osiedle Dywizjonu 303","place":"neighbourhood","sector":"D14"},"geometry":{"type":"Point","coordinates":[20.00674,50.08481]}},{"type":"Feature","properties":{"name":"Osiedle Kościuszkowskie","place":"neighbourhood","sector":"D16"},"geometry":{"type":"Point","coordinates":[20.01395,50.08284]}},{"type":"Feature","properties":{"name":"Osiedle Medyków","place":"neighbourhood","sector":"D12"},"geometry":{"type":"Point","coordinates":[19.99543,50.01299]}},{"type":"Feature","properties":{"name":"Osiedle Nowy Bieżanów-Północ","place":"neighbourhood","sector":"D12"},"geometry":{"type":"Point","coordinates":[20.01913,50.01743]}},{"type":"Feature","properties":{"name":"Osiedle Robotnicze","place":"neighbourhood","sector":"D08"},"geometry":{"type":"Point","coordinates":[19.90868,50.04568]}},{"type":"Feature","properties":{"name":"Meksyk","place":"neighbourhood","sector":"D18"},"geometry":{"type":"Point","coordinates":[20.09906,50.06884]}},{"type":"Feature","properties":{"name":"Osiedle za Dworem","place":"neighbourhood","sector":"D08"},"geometry":{"type":"Point","coordinates":[19.86777,50.01511]}},{"type":"Feature","properties":{"name":"Osiedle Tysiąclecia","place":"neighbourhood","sector":"D15"},"geometry":{"type":"Point","coordinates":[20.00123,50.09171]}},{"type":"Feature","properties":{"name":"Osiedle Widok Zarzecze","place":"neighbourhood","sector":"D06"},"geometry":{"type":"Point","coordinates":[19.88496,50.07444]}},{"type":"Feature","properties":{"name":"Osiedle Wojskowe","place":"neighbourhood","sector":"D07"},"geometry":{"type":"Point","coordinates":[19.81933,50.04414]}},{"type":"Feature","properties":{"name":"Osiedle Złotego Wieku","place":"neighbourhood","sector":"D15"},"geometry":{"type":"Point","coordinates":[20.00228,50.09647]}},{"type":"Feature","properties":{"name":"Podstawie","place":"neighbourhood","sector":"D18"},"geometry":{"type":"Point","coordinates":[20.17156,50.06973]}},{"type":"Feature","properties":{"name":"Podgórki Tynieckie","place":"neighbourhood","sector":"D08"},"geometry":{"type":"Point","coordinates":[19.84281,50.00838]}},{"type":"Feature","properties":{"name":"Podgórze Duchackie","place":"suburb","sector":"D11"},"geometry":{"type":"Point","coordinates":[19.96218,50.01381]}},{"type":"Feature","properties":{"name":"Pastwiska","place":"neighbourhood","sector":"D08"},"geometry":{"type":"Point","coordinates":[19.83943,50.01841]}},{"type":"Feature","properties":{"name":"Piasek","place":"quarter","sector":"D01"},"geometry":{"type":"Point","coordinates":[19.93045,50.0675]}},{"type":"Feature","properties":{"name":"Piaski Wielkie","place":"quarter","sector":"D11"},"geometry":{"type":"Point","coordinates":[19.97558,50.00761]}},{"type":"Feature","properties":{"name":"Piaski","place":"neighbourhood","sector":"D08"},"geometry":{"type":"Point","coordinates":[19.81555,50.01422]}},{"type":"Feature","properties":{"name":"Piekiełko","place":"neighbourhood","sector":"D18"},"geometry":{"type":"Point","coordinates":[20.11696,50.05621]}},{"type":"Feature","properties":{"name":"Pod Lasem","place":"neighbourhood","sector":"D08"},"geometry":{"type":"Point","coordinates":[19.82581,49.99769]}},{"type":"Feature","properties":{"name":"Pode Cłem","place":"neighbourhood","sector":"D18"},"geometry":{"type":"Point","coordinates":[20.17273,50.07979]}},{"type":"Feature","properties":{"name":"Podedworze","place":"neighbourhood","sector":"D08"},"geometry":{"type":"Point","coordinates":[19.83415,50.02844]}},{"type":"Feature","properties":{"name":"Podgórze","place":"suburb","sector":"D13"},"geometry":{"type":"Point","coordinates":[19.95296,50.0431]}},{"type":"Feature","properties":{"name":"Podwierzbie","place":"neighbourhood","sector":"D13"},"geometry":{"type":"Point","coordinates":[20.06639,50.04778]}},{"type":"Feature","properties":{"name":"Pokrzywki","place":"neighbourhood","sector":"D10"},"geometry":{"type":"Point","coordinates":[19.95871,49.97606]}},{"type":"Feature","properties":{"name":"Pokrzywnica","place":"neighbourhood","sector":"D10"},"geometry":{"type":"Point","coordinates":[19.94794,49.97432]}},{"type":"Feature","properties":{"name":"Pokusa","place":"neighbourhood","sector":"D10"},"geometry":{"type":"Point","coordinates":[19.98238,49.99357]}},{"type":"Feature","properties":{"name":"Poręba","place":"neighbourhood","sector":"D11"},"geometry":{"type":"Point","coordinates":[19.98858,50.0068]}},{"type":"Feature","properties":{"name":"Potrzask","place":"neighbourhood","sector":"D12"},"geometry":{"type":"Point","coordinates":[20.05099,50.01345]}},{"type":"Feature","properties":{"name":"Przegorzały","place":"quarter","sector":"D07"},"geometry":{"type":"Point","coordinates":[19.87408,50.05095]}},{"type":"Feature","properties":{"name":"Przylasek Wyciąski","place":"neighbourhood","sector":"D18"},"geometry":{"type":"Point","coordinates":[20.18197,50.05709]}},{"type":"Feature","properties":{"name":"Rogatka Warszawska","place":"neighbourhood","sector":"D03"},"geometry":{"type":"Point","coordinates":[19.95003,50.08183]}},{"type":"Feature","properties":{"name":"Rogatka","place":"neighbourhood","sector":"D13"},"geometry":{"type":"Point","coordinates":[20.002,50.03877]}},{"type":"Feature","properties":{"name":"Rędzina","place":"neighbourhood","sector":"D08"},"geometry":{"type":"Point","coordinates":[19.87642,50.01068]}},{"type":"Feature","properties":{"name":"Sadka","place":"neighbourhood","sector":"D11"},"geometry":{"type":"Point","coordinates":[19.98797,50.01061]}},{"type":"Feature","properties":{"name":"Siarczana Góra","place":"neighbourhood","sector":"D10"},"geometry":{"type":"Point","coordinates":[19.95713,49.99446]}},{"type":"Feature","properties":{"name":"Sidzina-Zagumnie","place":"neighbourhood","sector":"D08"},"geometry":{"type":"Point","coordinates":[19.87081,49.98932]}},{"type":"Feature","properties":{"name":"Sidziska","place":"neighbourhood","sector":"D10"},"geometry":{"type":"Point","coordinates":[19.89732,49.98549]}},{"type":"Feature","properties":{"name":"Skotnica","place":"neighbourhood","sector":"D04"},"geometry":{"type":"Point","coordinates":[19.90056,50.10778]}},{"type":"Feature","properties":{"name":"Skotniki Sieczkowskie","place":"neighbourhood","sector":"D08"},"geometry":{"type":"Point","coordinates":[19.86117,50.00584]}},{"type":"Feature","properties":{"name":"Solówki","place":"neighbourhood","sector":"D10"},"geometry":{"type":"Point","coordinates":[19.88955,49.98496]}},{"type":"Feature","properties":{"name":"Stara Wieś","place":"neighbourhood","sector":"D12"},"geometry":{"type":"Point","coordinates":[19.99944,50.02167]}},{"type":"Feature","properties":{"name":"Ugorek","place":"neighbourhood","sector":"D03"},"geometry":{"type":"Point","coordinates":[19.98381,50.07903]}},{"type":"Feature","properties":{"name":"Wesoła","place":"quarter","sector":"D02"},"geometry":{"type":"Point","coordinates":[19.95114,50.06393]}},{"type":"Feature","properties":{"name":"Wiatrowskie","place":"neighbourhood","sector":"D10"},"geometry":{"type":"Point","coordinates":[19.92975,49.99375]}},{"type":"Feature","properties":{"name":"Wieczysta","place":"neighbourhood","sector":"D03"},"geometry":{"type":"Point","coordinates":[19.98194,50.07361]}},{"type":"Feature","properties":{"name":"Witkowice","place":"quarter","sector":"D04"},"geometry":{"type":"Point","coordinates":[19.94586,50.10356]}},{"type":"Feature","properties":{"name":"Wiśniowa","place":"neighbourhood","sector":"D03"},"geometry":{"type":"Point","coordinates":[19.95594,50.08372]}},{"type":"Feature","properties":{"name":"Wodka","place":"neighbourhood","sector":"D08"},"geometry":{"type":"Point","coordinates":[19.88111,50.00944]}},{"type":"Feature","properties":{"name":"Wola Rusiecka","place":"neighbourhood","sector":"D18"},"geometry":{"type":"Point","coordinates":[20.13623,50.05341]}},{"type":"Feature","properties":{"name":"Wolica","place":"quarter","sector":"D18"},"geometry":{"type":"Point","coordinates":[20.19499,50.06305]}},{"type":"Feature","properties":{"name":"Wyciąże","place":"quarter","sector":"D18"},"geometry":{"type":"Point","coordinates":[20.16452,50.06976]}},{"type":"Feature","properties":{"name":"Za Osiedlem","place":"neighbourhood","sector":"D12"},"geometry":{"type":"Point","coordinates":[20.04087,50.03095]}},{"type":"Feature","properties":{"name":"Zaborze","place":"neighbourhood","sector":"D08"},"geometry":{"type":"Point","coordinates":[19.91113,50.01782]}},{"type":"Feature","properties":{"name":"Zadworze","place":"neighbourhood","sector":"D10"},"geometry":{"type":"Point","coordinates":[19.91815,49.98322]}},{"type":"Feature","properties":{"name":"Zagumnie","place":"neighbourhood","sector":"D13"},"geometry":{"type":"Point","coordinates":[19.98072,50.04468]}},{"type":"Feature","properties":{"name":"Zagórze","place":"neighbourhood","sector":"D08"},"geometry":{"type":"Point","coordinates":[19.82006,50.01098]}},{"type":"Feature","properties":{"name":"Zakamycze","place":"quarter","sector":"D07"},"geometry":{"type":"Point","coordinates":[19.82942,50.05713]}},{"type":"Feature","properties":{"name":"Zakarczmie","place":"neighbourhood","sector":"D10"},"geometry":{"type":"Point","coordinates":[19.90936,49.98376]}},{"type":"Feature","properties":{"name":"Zalesie","place":"neighbourhood","sector":"D10"},"geometry":{"type":"Point","coordinates":[19.94412,49.98503]}},{"type":"Feature","properties":{"name":"Zamłynie","place":"neighbourhood","sector":"D10"},"geometry":{"type":"Point","coordinates":[19.92035,49.99136]}},{"type":"Feature","properties":{"name":"Zapiaski","place":"neighbourhood","sector":"D08"},"geometry":{"type":"Point","coordinates":[19.839,50.01186]}},{"type":"Feature","properties":{"name":"Łagiewniki-Borek Fałęcki","place":"suburb","sector":"D09"},"geometry":{"type":"Point","coordinates":[19.92944,50.01996]}},{"type":"Feature","properties":{"name":"Łazy Pólnocne","place":"neighbourhood","sector":"D12"},"geometry":{"type":"Point","coordinates":[20.03167,50.02806]}},{"type":"Feature","properties":{"name":"Łutnia","place":"neighbourhood","sector":"D13"},"geometry":{"type":"Point","coordinates":[20.06918,50.04103]}},{"type":"Feature","properties":{"name":"Łysa Góra","place":"neighbourhood","sector":"D10"},"geometry":{"type":"Point","coordinates":[19.93557,49.98833]}},{"type":"Feature","properties":{"name":"Łęg","place":"quarter","sector":"D14"},"geometry":{"type":"Point","coordinates":[20.02389,50.05972]}},{"type":"Feature","properties":{"name":"Osiedle Ruczaj-Zaborze","place":"neighbourhood","sector":"D08"},"geometry":{"type":"Point","coordinates":[19.91937,50.031]}},{"type":"Feature","properties":{"name":"Opatkowice","place":"quarter","sector":"D10"},"geometry":{"type":"Point","coordinates":[19.91358,49.98722]}},{"type":"Feature","properties":{"name":"Osiedle Za Fortem","place":"neighbourhood","sector":"D10"},"geometry":{"type":"Point","coordinates":[19.89991,49.99774]}},{"type":"Feature","properties":{"name":"Jugowice","place":"quarter","sector":"D10"},"geometry":{"type":"Point","coordinates":[19.92644,50.00372]}},{"type":"Feature","properties":{"name":"Kurdwanów","place":"quarter","sector":"D11"},"geometry":{"type":"Point","coordinates":[19.95509,50.00824]}},{"type":"Feature","properties":{"name":"Lusina","place":"neighbourhood","sector":"D10"},"geometry":{"type":"Point","coordinates":[19.93106,49.98176]}},{"type":"Feature","properties":{"name":"Zbydniowice","place":"quarter","sector":"D10"},"geometry":{"type":"Point","coordinates":[19.95815,49.9728]}},{"type":"Feature","properties":{"name":"Dom Nad Łąkami","place":"neighbourhood","sector":"D08"},"geometry":{"type":"Point","coordinates":[19.87167,49.97904]}},{"type":"Feature","properties":{"name":"Załęcze","place":"neighbourhood","sector":"D14"},"geometry":{"type":"Point","coordinates":[20.00974,50.05698]}},{"type":"Feature","properties":{"name":"Stare Wiślisko","place":"neighbourhood","sector":"D18"},"geometry":{"type":"Point","coordinates":[20.05436,50.05884]}},{"type":"Feature","properties":{"name":"Brackie","place":"neighbourhood","sector":"D18"},"geometry":{"type":"Point","coordinates":[20.07315,50.06035]}},{"type":"Feature","properties":{"name":"Zawsie","place":"neighbourhood","sector":"D14"},"geometry":{"type":"Point","coordinates":[20.01898,50.06002]}},{"type":"Feature","properties":{"name":"Kopań","place":"neighbourhood","sector":"D18"},"geometry":{"type":"Point","coordinates":[20.04045,50.0588]}},{"type":"Feature","properties":{"name":"Klitówka","place":"neighbourhood","sector":"D18"},"geometry":{"type":"Point","coordinates":[20.04704,50.0606]}},{"type":"Feature","properties":{"name":"Habina","place":"neighbourhood","sector":"D14"},"geometry":{"type":"Point","coordinates":[20.0312,50.05968]}},{"type":"Feature","properties":{"name":"Kopaniec","place":"neighbourhood","sector":"D18"},"geometry":{"type":"Point","coordinates":[20.07381,50.06179]}},{"type":"Feature","properties":{"name":"Stara Mogiła","place":"neighbourhood","sector":"D18"},"geometry":{"type":"Point","coordinates":[20.0686,50.06613]}},{"type":"Feature","properties":{"name":"Zapusta","place":"neighbourhood","sector":"D14"},"geometry":{"type":"Point","coordinates":[20.03566,50.06073]}},{"type":"Feature","properties":{"name":"Isep","place":"neighbourhood","sector":"D14"},"geometry":{"type":"Point","coordinates":[20.02031,50.05554]}},{"type":"Feature","properties":{"name":"Szafrańskie","place":"neighbourhood","sector":"D14"},"geometry":{"type":"Point","coordinates":[20.00817,50.05116]}},{"type":"Feature","properties":{"name":"Zatyka","place":"neighbourhood","sector":"D14"},"geometry":{"type":"Point","coordinates":[20.00461,50.05107]}},{"type":"Feature","properties":{"name":"Strękówka","place":"neighbourhood","sector":"D14"},"geometry":{"type":"Point","coordinates":[20.01382,50.05097]}},{"type":"Feature","properties":{"name":"Na Cuplu","place":"neighbourhood","sector":"D14"},"geometry":{"type":"Point","coordinates":[20.01134,50.04808]}},{"type":"Feature","properties":{"name":"Grąby","place":"neighbourhood","sector":"D18"},"geometry":{"type":"Point","coordinates":[20.04097,50.05511]}},{"type":"Feature","properties":{"name":"Lasówka Łęska","place":"neighbourhood","sector":"D14"},"geometry":{"type":"Point","coordinates":[20.0301,50.05268]}},{"type":"Feature","properties":{"name":"Nowa Huta","place":"suburb","sector":"D18"},"geometry":{"type":"Point","coordinates":[20.03751,50.07273]}},{"type":"Feature","properties":{"name":"Osiedle Szuwarowa","place":"neighbourhood","sector":"D08"},"geometry":{"type":"Point","coordinates":[19.90434,50.01974]}},{"type":"Feature","properties":{"name":"Uzdrowisko Swoszowice","place":"neighbourhood","sector":"D10"},"geometry":{"type":"Point","coordinates":[19.93456,49.99185]}},{"type":"Feature","properties":{"name":"Bogucianka","place":"neighbourhood","sector":"D08"},"geometry":{"type":"Point","coordinates":[19.81198,50.00943]}},{"type":"Feature","properties":{"name":"Mistrzejowice","place":"suburb","sector":"D15"},"geometry":{"type":"Point","coordinates":[20.01377,50.09664]}},{"type":"Feature","properties":{"name":"Prądnik Biały","place":"suburb","sector":"D04"},"geometry":{"type":"Point","coordinates":[19.92932,50.09463]}},{"type":"Feature","properties":{"name":"Szutry","place":"neighbourhood","sector":"D12"},"geometry":{"type":"Point","coordinates":[19.98899,50.02613]}},{"type":"Feature","properties":{"name":"Kąty","place":"neighbourhood","sector":"D04"},"geometry":{"type":"Point","coordinates":[19.89914,50.11347]}},{"type":"Feature","properties":{"name":"Bronowice","place":"suburb","sector":"D06"},"geometry":{"type":"Point","coordinates":[19.88922,50.07842]}},{"type":"Feature","properties":{"name":"Złocień","place":"quarter","sector":"D12"},"geometry":{"type":"Point","coordinates":[20.05117,50.02171]}},{"type":"Feature","properties":{"name":"Olsza","place":"quarter","sector":"D03"},"geometry":{"type":"Point","coordinates":[19.96646,50.08218]}},{"type":"Feature","properties":{"name":"Kliny Poranne","place":"neighbourhood","sector":"D10"},"geometry":{"type":"Point","coordinates":[19.91247,49.99503]}},{"type":"Feature","properties":{"name":"Osiedle Niepodległości","place":"neighbourhood","sector":"D16"},"geometry":{"type":"Point","coordinates":[20.02359,50.08068]}},{"type":"Feature","properties":{"name":"Osiedle Albertyńskie","place":"neighbourhood","sector":"D16"},"geometry":{"type":"Point","coordinates":[20.01763,50.08143]}},{"type":"Feature","properties":{"name":"Osiedle Avia","place":"neighbourhood","sector":"D14"},"geometry":{"type":"Point","coordinates":[20.0045,50.08012]}},{"type":"Feature","properties":{"name":"Osiedle Oświecenia","place":"neighbourhood","sector":"D15"},"geometry":{"type":"Point","coordinates":[19.99133,50.09345]}},{"type":"Feature","properties":{"name":"Osiedle Akademickie","place":"neighbourhood","sector":"D14"},"geometry":{"type":"Point","coordinates":[19.99466,50.08524]}},{"type":"Feature","properties":{"name":"Osiedle Wysokie","place":"neighbourhood","sector":"D16"},"geometry":{"type":"Point","coordinates":[20.0195,50.08935]}},{"type":"Feature","properties":{"name":"Ruczaj","place":"quarter","sector":"D08"},"geometry":{"type":"Point","coordinates":[19.90617,50.02497]}},{"type":"Feature","properties":{"name":"Kombinat","place":"quarter","sector":"D18"},"geometry":{"type":"Point","coordinates":[20.08103,50.07163]}},{"type":"Feature","properties":{"name":"Olszyny","place":"quarter","sector":"D08"},"geometry":{"type":"Point","coordinates":[19.87367,49.98067]}},{"type":"Feature","properties":{"name":"Zalew Nowohucki","place":"quarter","sector":"D16"},"geometry":{"type":"Point","coordinates":[20.0491,50.08201]}},{"type":"Feature","properties":{"name":"Przedmieście Warszawskie","place":"quarter","sector":"D01"},"geometry":{"type":"Point","coordinates":[19.94988,50.07769]}},{"type":"Feature","properties":{"name":"Prądnik Czerwony","place":"quarter","sector":"D03"},"geometry":{"type":"Point","coordinates":[19.96197,50.08986]}},{"type":"Feature","properties":{"name":"Las Wolski","place":"quarter","sector":"D07"},"geometry":{"type":"Point","coordinates":[19.84989,50.05405]}},{"type":"Feature","properties":{"name":"Kabel","place":"quarter","sector":"D13"},"geometry":{"type":"Point","coordinates":[19.97375,50.03052]}},{"type":"Feature","properties":{"name":"Błonia","place":"quarter","sector":"D07"},"geometry":{"type":"Point","coordinates":[19.91014,50.05973]}},{"type":"Feature","properties":{"name":"Białe Morza","place":"quarter","sector":"D09"},"geometry":{"type":"Point","coordinates":[19.93967,50.00995]}},{"type":"Feature","properties":{"name":"Osiedle Złotej Jesieni","place":"neighbourhood","sector":"D16"},"geometry":{"type":"Point","coordinates":[20.02566,50.0911]}},{"type":"Feature","properties":{"name":"Ogrody","place":"neighbourhood","sector":"D13"},"geometry":{"type":"Point","coordinates":[20.03077,50.04363]}},{"type":"Feature","properties":{"name":"Niwy Rybickie","place":"neighbourhood","sector":"D13"},"geometry":{"type":"Point","coordinates":[20.05087,50.04802]}},{"type":"Feature","properties":{"name":"Jeziorko","place":"neighbourhood","sector":"D13"},"geometry":{"type":"Point","coordinates":[20.07438,50.0423]}},{"type":"Feature","properties":{"name":"Las Kościelnicki","place":"neighbourhood","sector":"D18"},"geometry":{"type":"Point","coordinates":[20.2023,50.05594]}},{"type":"Feature","properties":{"name":"Rogów","place":"neighbourhood","sector":"D18"},"geometry":{"type":"Point","coordinates":[20.20657,50.05031]}},{"type":"Feature","properties":{"name":"Zawodzie","place":"neighbourhood","sector":"D04"},"geometry":{"type":"Point","coordinates":[19.94491,50.09697]}},{"type":"Feature","properties":{"name":"Gajszcza","place":"neighbourhood","sector":"D04"},"geometry":{"type":"Point","coordinates":[19.95307,50.09757]}},{"type":"Feature","properties":{"name":"Zadęby","place":"neighbourhood","sector":"D04"},"geometry":{"type":"Point","coordinates":[19.95267,50.107]}},{"type":"Feature","properties":{"name":"Bularnia","place":"neighbourhood","sector":"D04"},"geometry":{"type":"Point","coordinates":[19.94284,50.09508]}},{"type":"Feature","properties":{"name":"Zasady","place":"neighbourhood","sector":"D04"},"geometry":{"type":"Point","coordinates":[19.93779,50.09007]}},{"type":"Feature","properties":{"name":"Duchackie","place":"neighbourhood","sector":"D04"},"geometry":{"type":"Point","coordinates":[19.93371,50.10109]}},{"type":"Feature","properties":{"name":"Osiedle Bohaterów Września","place":"neighbourhood","sector":"D15"},"geometry":{"type":"Point","coordinates":[20.00953,50.09926]}},{"type":"Feature","properties":{"name":"Osiedle Piastów","place":"neighbourhood","sector":"D15"},"geometry":{"type":"Point","coordinates":[20.01613,50.09966]}}]}