{"type":"Feature","properties":{"name":"Kielce","osm_id":1627497},"geometry":{"type":"Polygon","coordinates":[[[20.51052,50.85659],[20.51603,50.84092],[20.52573,50.83956],[20.52842,50.84125],[20.53535,50.83889],[20.53577,50.83846],[20.53286,50.83871],[20.53339,50.83771],[20.53605,50.83731],[20.53452,50.83613],[20.53516,50.83587],[20.53452,50.83483],[20.53575,50.83247],[20.53649,50.83227],[20.53699,50.83259],[20.53811,50.832],[20.53878,50.8324],[20.53789,50.83349],[20.53905,50.83344],[20.53978,50.83202],[20.54204,50.83009],[20.54435,50.82845],[20.54615,50.82772],[20.54963,50.8247],[20.55162,50.81998],[20.55319,50.81283],[20.55385,50.81244],[20.55936,50.81021],[20.56228,50.80985],[20.56175,50.81035],[20.56249,50.8113],[20.56382,50.81116],[20.564,50.81148],[20.56864,50.81097],[20.56896,50.81157],[20.57141,50.8126],[20.57286,50.81543],[20.58551,50.81755],[20.58871,50.81689],[20.59259,50.81462],[20.59553,50.81398],[20.59488,50.81105],[20.59443,50.81116],[20.59233,50.80854],[20.59545,50.80691],[20.60272,50.81024],[20.61501,50.80553],[20.61548,50.80104],[20.61664,50.80089],[20.61321,50.79349],[20.62057,50.79329],[20.62084,50.79814],[20.62216,50.79805],[20.62136,50.80119],[20.62387,50.80385],[20.62724,50.8029],[20.6275,50.80756],[20.63155,50.80707],[20.63227,50.80787],[20.64071,50.80505],[20.64337,50.80794],[20.64532,50.80728],[20.64589,50.81788],[20.64075,50.81851],[20.64077,50.81898],[20.64029,50.81899],[20.64027,50.81857],[20.63734,50.81893],[20.63758,50.82326],[20.64206,50.82267],[20.64342,50.81998],[20.65512,50.8185],[20.65926,50.82698],[20.6719,50.82603],[20.66565,50.83173],[20.67288,50.84415],[20.67583,50.84415],[20.67601,50.84708],[20.66826,50.84706],[20.66923,50.85244],[20.6829,50.85232],[20.68301,50.8518],[20.6844,50.85134],[20.68452,50.85094],[20.68886,50.84969],[20.6895,50.84887],[20.69158,50.84884],[20.69399,50.84708],[20.6967,50.84703],[20.6965,50.8483],[20.69764,50.84867],[20.69715,50.84934],[20.70138,50.84933],[20.70819,50.84598],[20.70838,50.85619],[20.70933,50.8562],[20.70998,50.85663],[20.71097,50.85776],[20.71076,50.85863],[20.71162,50.85879],[20.71216,50.85958],[20.71339,50.85931],[20.71418,50.85975],[20.71387,50.86051],[20.7141,50.8609],[20.71469,50.86092],[20.71511,50.86041],[20.71587,50.8613],[20.71714,50.86069],[20.71823,50.86146],[20.72007,50.86227],[20.7206,50.86222],[20.72033,50.86245],[20.72063,50.86282],[20.72036,50.86298],[20.71949,50.86249],[20.71908,50.86276],[20.71919,50.86314],[20.67734,50.86316],[20.67578,50.87371],[20.67771,50.87906],[20.67764,50.8843],[20.68275,50.88416],[20.69116,50.88256],[20.70026,50.89095],[20.69997,50.89133],[20.69795,50.88949],[20.695,50.89428],[20.6928,50.89387],[20.68869,50.8924],[20.68563,50.89202],[20.68167,50.89312],[20.67999,50.89285],[20.67789,50.89298],[20.6774,50.89365],[20.67691,50.89605],[20.67979,50.89646],[20.69235,50.89969],[20.6931,50.90012],[20.68166,50.90299],[20.68247,50.90463],[20.68263,50.90583],[20.68248,50.90741],[20.68188,50.90875],[20.68509,50.91102],[20.67763,50.91486],[20.6769,50.91251],[20.66276,50.91147],[20.66006,50.90338],[20.64275,50.906],[20.64247,50.9066],[20.64163,50.90617],[20.63782,50.90676],[20.6372,50.90734],[20.6384,50.90727],[20.63913,50.90802],[20.63808,50.90923],[20.63932,50.91191],[20.63863,50.91204],[20.63887,50.91255],[20.63386,50.91345],[20.63319,50.91183],[20.63431,50.91167],[20.63386,50.90989],[20.63343,50.90929],[20.63217,50.90973],[20.63208,50.90938],[20.63278,50.90848],[20.63271,50.90745],[20.63165,50.90646],[20.62797,50.9056],[20.62732,50.90628],[20.62371,50.90665],[20.62297,50.90619],[20.62036,50.90715],[20.61639,50.90776],[20.61854,50.91024],[20.61649,50.91228],[20.60288,50.91222],[20.60355,50.91508],[20.60252,50.91474],[20.60282,50.91459],[20.59683,50.9126],[20.597,50.91228],[20.59654,50.91213],[20.59628,50.91238],[20.58735,50.90981],[20.5876,50.90971],[20.58734,50.90923],[20.58723,50.90966],[20.585,50.90918],[20.58235,50.90783],[20.58156,50.90701],[20.58103,50.90741],[20.58169,50.90777],[20.58151,50.90836],[20.5798,50.90827],[20.54989,50.90239],[20.5482,50.89618],[20.53988,50.88292],[20.54414,50.88327],[20.54414,50.88304],[20.54283,50.88283],[20.54579,50.87955],[20.54752,50.87942],[20.54724,50.87414],[20.53128,50.87352],[20.52888,50.87317],[20.52728,50.87384],[20.52674,50.87361],[20.52488,50.87401],[20.52423,50.87432],[20.52431,50.8748],[20.52322,50.87507],[20.52269,50.87568],[20.52156,50.87587],[20.51983,50.87308],[20.51918,50.87142],[20.51954,50.86882],[20.52562,50.86773],[20.52496,50.86619],[20.5282,50.86564],[20.52566,50.8597],[20.52235,50.8594],[20.52106,50.8556],[20.51052,50.85659]]]}}