{"type":"FeatureCollection","features":[{"type":"Feature","properties":{"name":"Posłowice","place":"suburb","sector":"S06"},"geometry":{"type":"Point","coordinates":[20.57487,50.82379]}},{"type":"Feature","properties":{"name":"Leśniówka","place":"suburb","sector":"S08"},"geometry":{"type":"Point","coordinates":[20.60353,50.82333]}},{"type":"Feature","properties":{"name":"Gruchawka","place":"neighbourhood","sector":"S03"},"geometry":{"type":"Point","coordinates":[20.61227,50.90929]}},{"type":"Feature","properties":{"name":"Baranówek","place":"suburb","sector":"S05"},"geometry":{"type":"Point","coordinates":[20.61806,50.85086]}},{"type":"Feature","properties":{"name":"Domaszowice Wikaryjskie","place":"suburb","sector":"S04"},"geometry":{"type":"Point","coordinates":[20.68492,50.85997]}},{"type":"Feature","properties":{"name":"Dąbrowa","place":"suburb","sector":"S07"},"geometry":{"type":"Point","coordinates":[20.66525,50.90594]}},{"type":"Feature","properties":{"name":"Ślichowice II","place":"neighbourhood","sector":"S09"},"geometry":{"type":"Point","coordinates":[20.58074,50.88557]}},{"type":"Feature","properties":{"name":"Herby","place":"suburb","sector":"S03"},"geometry":{"type":"Point","coordinates":[20.61006,50.88881]}},{"type":"Feature","properties":{"name":"Bocianek","place":"suburb","sector":"S02"},"geometry":{"type":"Point","coordinates":[20.64709,50.88412]}},{"type":"Feature","properties":{"name":"Sady","place":"suburb","sector":"S01"},"geometry":{"type":"Point","coordinates":[20.63439,50.88042]}},{"type":"Feature","properties":{"name":"Sieje","place":"suburb","sector":"S07"},"geometry":{"type":"Point","coordinates":[20.64847,50.90299]}},{"type":"Feature","properties":{"name":"Zagórska-Północ","place":"neighbourhood","sector":"S01"},"geometry":{"type":"Point","coordinates":[20.64794,50.86787]}},{"type":"Feature","properties":{"name":"Zagórze","place":"suburb","sector":"S04"},"geometry":{"type":"Point","coordinates":[20.66121,50.85958]}},{"type":"Feature","properties":{"name":"Ostra Górka","place":"suburb","sector":"S04"},"geometry":{"type":"Point","coordinates":[20.65923,50.84625]}},{"type":"Feature","properties":{"name":"Bukówka","place":"suburb","sector":"S05"},"geometry":{"type":"Point","coordinates":[20.6602,50.8369]}},{"type":"Feature","properties":{"name":"Pakosz","place":"suburb","sector":"S01"},"geometry":{"type":"Point","coordinates":[20.61039,50.85927]}},{"type":"Feature","properties":{"name":"Białogon","place":"suburb","sector":"S06"},"geometry":{"type":"Point","coordinates":[20.55311,50.8537]}},{"type":"Feature","properties":{"name":"Kawetczyzna","place":"neighbourhood","sector":"S05"},"geometry":{"type":"Point","coordinates":[20.62543,50.84104]}},{"type":"Feature","properties":{"name":"Słoneczne Wzgórze","place":"suburb","sector":"S02"},"geometry":{"type":"Point","coordinates":[20.65571,50.88675]}},{"type":"Feature","properties":{"name":"Osiedle Świętokrzyskie","place":"neighbourhood","sector":"S07"},"geometry":{"type":"Point","coordinates":[20.66627,50.89088]}},{"type":"Feature","properties":{"name":"Uroczysko","place":"neighbourhood","sector":"S02"},"geometry":{"type":"Point","coordinates":[20.64537,50.89309]}},{"type":"Feature","properties":{"name":"Pod Dalnią","place":"neighbourhood","sector":"S03"},"geometry":{"type":"Point","coordinates":[20.59393,50.87962]}},{"type":"Feature","properties":{"name":"Podkarczówka","place":"suburb","sector":"S03"},"geometry":{"type":"Point","coordinates":[20.59079,50.86241]}},{"type":"Feature","properties":{"name":"Czarnów","place":"suburb","sector":"S03"},"geometry":{"type":"Point","coordinates":[20.60924,50.87676]}},{"type":"Feature","properties":{"name":"Barwinek","place":"suburb","sector":"S05"},"geometry":{"type":"Point","coordinates":[20.62909,50.84797]}},{"type":"Feature","properties":{"name":"Śródmieście","place":"suburb","sector":"S01"},"geometry":{"type":"Point","coordinates":[20.63052,50.8704]}},{"type":"Feature","properties":{"name":"Czarnów Rządowy","place":"suburb","sector":"S09"},"geometry":{"type":"Point","coordinates":[20.57131,50.88081]}},{"type":"Feature","properties":{"name":"Czarnów-Osiedle","place":"neighbourhood","sector":"S03"},"geometry":{"type":"Point","coordinates":[20.60164,50.88164]}},{"type":"Feature","properties":{"name":"Głęboczka","place":"neighbourhood","sector":"S01"},"geometry":{"type":"Point","coordinates":[20.62355,50.88542]}},{"type":"Feature","properties":{"name":"Osiedle Jagiellońskie","place":"neighbourhood","sector":"S03"},"geometry":{"type":"Point","coordinates":[20.60997,50.87028]}},{"type":"Feature","properties":{"name":"Osiedle Jana Kochanowskiego","place":"neighbourhood","sector":"S05"},"geometry":{"type":"Point","coordinates":[20.63107,50.8551]}},{"type":"Feature","properties":{"name":"Karczówka","place":"quarter","sector":"S03"},"geometry":{"type":"Point","coordinates":[20.59364,50.87039]}},{"type":"Feature","properties":{"name":"Niewachlów I","place":"suburb","sector":"S09"},"geometry":{"type":"Point","coordinates":[20.58695,50.89598]}},{"type":"Feature","properties":{"name":"Skrzetle","place":"suburb","sector":"S02"},"geometry":{"type":"Point","coordinates":[20.61986,50.8946]}},{"type":"Feature","properties":{"name":"Łazy","place":"suburb","sector":"S09"},"geometry":{"type":"Point","coordinates":[20.59973,50.9061]}},{"type":"Feature","properties":{"name":"Biesak","place":"neighbourhood","sector":"S03"},"geometry":{"type":"Point","coordinates":[20.58389,50.85556]}},{"type":"Feature","properties":{"name":"Bór","place":"neighbourhood","sector":"S09"},"geometry":{"type":"Point","coordinates":[20.56333,50.90028]}},{"type":"Feature","properties":{"name":"Cedro-Mazur","place":"neighbourhood","sector":"S04"},"geometry":{"type":"Point","coordinates":[20.70552,50.86125]}},{"type":"Feature","properties":{"name":"Cegielnia","place":"neighbourhood","sector":"S03"},"geometry":{"type":"Point","coordinates":[20.59806,50.86]}},{"type":"Feature","properties":{"name":"Chrusty","place":"neighbourhood","sector":"S03"},"geometry":{"type":"Point","coordinates":[20.60545,50.89548]}},{"type":"Feature","properties":{"name":"Dodatki","place":"quarter","sector":"S08"},"geometry":{"type":"Point","coordinates":[20.63194,50.82438]}},{"type":"Feature","properties":{"name":"Dobromyśl","place":"suburb","sector":"S06"},"geometry":{"type":"Point","coordinates":[20.53778,50.86111]}},{"type":"Feature","properties":{"name":"Dyminy-Wieś","place":"suburb","sector":"S08"},"geometry":{"type":"Point","coordinates":[20.62735,50.81937]}},{"type":"Feature","properties":{"name":"Górka","place":"neighbourhood","sector":"S08"},"geometry":{"type":"Point","coordinates":[20.62438,50.81777]}},{"type":"Feature","properties":{"name":"Kadzielnia","place":"suburb","sector":"S01"},"geometry":{"type":"Point","coordinates":[20.61988,50.86181]}},{"type":"Feature","properties":{"name":"Kleckie","place":"quarter","sector":"S05"},"geometry":{"type":"Point","coordinates":[20.65889,50.83]}},{"type":"Feature","properties":{"name":"Kleckie-Wielki Las","place":"neighbourhood","sector":"S05"},"geometry":{"type":"Point","coordinates":[20.64861,50.82889]}},{"type":"Feature","properties":{"name":"Koszarka","place":"neighbourhood","sector":"S03"},"geometry":{"type":"Point","coordinates":[20.60392,50.86251]}},{"type":"Feature","properties":{"name":"Koszary","place":"neighbourhood","sector":"S05"},"geometry":{"type":"Point","coordinates":[20.62481,50.83349]}},{"type":"Feature","properties":{"name":"Kozi Lasek","place":"neighbourhood","sector":"S07"},"geometry":{"type":"Point","coordinates":[20.67583,50.905]}},{"type":"Feature","properties":{"name":"Malików","place":"neighbourhood","sector":"S09"},"geometry":{"type":"Point","coordinates":[20.57268,50.8873]}},{"type":"Feature","properties":{"name":"Modrzewie","place":"neighbourhood","sector":"S06"},"geometry":{"type":"Point","coordinates":[20.57873,50.82288]}},{"type":"Feature","properties":{"name":"Nałęczów","place":"neighbourhood","sector":"S06"},"geometry":{"type":"Point","coordinates":[20.52917,50.87056]}},{"type":"Feature","properties":{"name":"Niewachlów II","place":"suburb","sector":"S09"},"geometry":{"type":"Point","coordinates":[20.57186,50.90399]}},{"type":"Feature","properties":{"name":"Nowy Folwark","place":"suburb","sector":"S04"},"geometry":{"type":"Point","coordinates":[20.66827,50.87037]}},{"type":"Feature","properties":{"name":"Ogród-Kolonia","place":"neighbourhood","sector":"S05"},"geometry":{"type":"Point","coordinates":[20.61504,50.84298]}},{"type":"Feature","properties":{"name":"Osiedle Czarnockiego","place":"neighbourhood","sector":"S01"},"geometry":{"type":"Point","coordinates":[20.6373,50.86381]}},{"type":"Feature","properties":{"name":"Podstefaniec","place":"neighbourhood","sector":"S07"},"geometry":{"type":"Point","coordinates":[20.67014,50.9001]}},{"type":"Feature","properties":{"name":"Pastwiska","place":"neighbourhood","sector":"S08"},"geometry":{"type":"Point","coordinates":[20.63597,50.82361]}},{"type":"Feature","properties":{"name":"Piaski","place":"suburb","sector":"S02"},"geometry":{"type":"Point","coordinates":[20.63306,50.89667]}},{"type":"Feature","properties":{"name":"Pietraszki","place":"suburb","sector":"S06"},"geometry":{"type":"Point","coordinates":[20.54194,50.87083]}},{"type":"Feature","properties":{"name":"Pocieszka","place":"neighbourhood","sector":"S02"},"geometry":{"type":"Point","coordinates":[20.6423,50.8813]}},{"type":"Feature","properties":{"name":"Pod Telegrafem","place":"neighbourhood","sector":"S05"},"geometry":{"type":"Point","coordinates":[20.64051,50.84444]}},{"type":"Feature","properties":{"name":"Podgórze","place":"neighbourhood","sector":"S06"},"geometry":{"type":"Point","coordinates":[20.54611,50.86444]}},{"type":"Feature","properties":{"name":"Podhale","place":"quarter","sector":"S05"},"geometry":{"type":"Point","coordinates":[20.64111,50.84417]}},{"type":"Feature","properties":{"name":"Radostowa","place":"neighbourhood","sector":"S04"},"geometry":{"type":"Point","coordinates":[20.65598,50.8628]}},{"type":"Feature","properties":{"name":"Rudzica","place":"neighbourhood","sector":"S08"},"geometry":{"type":"Point","coordinates":[20.58056,50.82194]}},{"type":"Feature","properties":{"name":"Schaby","place":"neighbourhood","sector":"S09"},"geometry":{"type":"Point","coordinates":[20.59462,50.90251]}},{"type":"Feature","properties":{"name":"Sitkówka","place":"neighbourhood","sector":"S06"},"geometry":{"type":"Point","coordinates":[20.55455,50.81728]}},{"type":"Feature","properties":{"name":"Stadion","place":"suburb","sector":"S05"},"geometry":{"type":"Point","coordinates":[20.60862,50.84643]}},{"type":"Feature","properties":{"name":"Stanisławów","place":"neighbourhood","sector":"S09"},"geometry":{"type":"Point","coordinates":[20.58107,50.90662]}},{"type":"Feature","properties":{"name":"Stara Góra","place":"neighbourhood","sector":"S07"},"geometry":{"type":"Point","coordinates":[20.67694,50.90028]}},{"type":"Feature","properties":{"name":"Stara Wieś","place":"neighbourhood","sector":"S07"},"geometry":{"type":"Point","coordinates":[20.68043,50.90428]}},{"type":"Feature","properties":{"name":"Szatan","place":"neighbourhood","sector":"S09"},"geometry":{"type":"Point","coordinates":[20.55391,50.90024]}},{"type":"Feature","properties":{"name":"Szydłówek Górny","place":"neighbourhood","sector":"S02"},"geometry":{"type":"Point","coordinates":[20.6503,50.89027]}},{"type":"Feature","properties":{"name":"Słowik-Willa","place":"quarter","sector":"S06"},"geometry":{"type":"Point","coordinates":[20.53806,50.83861]}},{"type":"Feature","properties":{"name":"Wietrznia","place":"suburb","sector":"S05"},"geometry":{"type":"Point","coordinates":[20.64444,50.85222]}},{"type":"Feature","properties":{"name":"Wąsosz","place":"neighbourhood","sector":"S06"},"geometry":{"type":"Point","coordinates":[20.55343,50.85027]}},{"type":"Feature","properties":{"name":"Zagórze Dworskie","place":"neighbourhood","sector":"S04"},"geometry":{"type":"Point","coordinates":[20.66393,50.86198]}},{"type":"Feature","properties":{"name":"Zagórze Górne","place":"neighbourhood","sector":"S04"},"geometry":{"type":"Point","coordinates":[20.66274,50.85558]}},{"type":"Feature","properties":{"name":"Zakaplica","place":"neighbourhood","sector":"S09"},"geometry":{"type":"Point","coordinates":[20.57591,50.89796]}},{"type":"Feature","properties":{"name":"Zalesie Drugie","place":"neighbourhood","sector":"S06"},"geometry":{"type":"Point","coordinates":[20.52,50.85222]}},{"type":"Feature","properties":{"name":"Zalesie Pierwsze","place":"neighbourhood","sector":"S06"},"geometry":{"type":"Point","coordinates":[20.53998,50.85549]}},{"type":"Feature","properties":{"name":"Zalesie","place":"suburb","sector":"S06"},"geometry":{"type":"Point","coordinates":[20.53935,50.84623]}},{"type":"Feature","properties":{"name":"Zalesie-Słowik","place":"neighbourhood","sector":"S06"},"geometry":{"type":"Point","coordinates":[20.53693,50.83986]}},{"type":"Feature","properties":{"name":"Zaporębie","place":"neighbourhood","sector":"S08"},"geometry":{"type":"Point","coordinates":[20.6405,50.817]}},{"type":"Feature","properties":{"name":"Zaszosie","place":"neighbourhood","sector":"S08"},"geometry":{"type":"Point","coordinates":[20.62091,50.82018]}},{"type":"Feature","properties":{"name":"Łan","place":"neighbourhood","sector":"S08"},"geometry":{"type":"Point","coordinates":[20.62741,50.82581]}},{"type":"Feature","properties":{"name":"Zagórska-Południe","place":"neighbourhood","sector":"S01"},"geometry":{"type":"Point","coordinates":[20.64658,50.86448]}},{"type":"Feature","properties":{"name":"Sandomierskie","place":"neighbourhood","sector":"S01"},"geometry":{"type":"Point","coordinates":[20.64886,50.87136]}},{"type":"Feature","properties":{"name":"Ślichowice I","place":"neighbourhood","sector":"S03"},"geometry":{"type":"Point","coordinates":[20.589,50.88314]}},{"type":"Feature","properties":{"name":"Osiedle Na Stoku","place":"suburb","sector":"S07"},"geometry":{"type":"Point","coordinates":[20.66566,50.89436]}},{"type":"Feature","properties":{"name":"Szydłówek","place":"suburb","sector":"S02"},"geometry":{"type":"Point","coordinates":[20.64061,50.88934]}},{"type":"Feature","properties":{"name":"Osiedle Skarpa","place":"neighbourhood","sector":"S01"},"geometry":{"type":"Point","coordinates":[20.63164,50.87974]}},{"type":"Feature","properties":{"name":"Cedzyna","place":"neighbourhood","sector":"S04"},"geometry":{"type":"Point","coordinates":[20.70841,50.86132]}},{"type":"Feature","properties":{"name":"Dyminy","place":"quarter","sector":"S08"},"geometry":{"type":"Point","coordinates":[20.61976,50.79702]}},{"type":"Feature","properties":{"name":"Stary Czarnów","place":"neighbourhood","sector":"S03"},"geometry":{"type":"Point","coordinates":[20.60223,50.87662]}},{"type":"Feature","properties":{"name":"Osiedle Chęcińskie","place":"neighbourhood","sector":"S01"},"geometry":{"type":"Point","coordinates":[20.61791,50.86664]}},{"type":"Feature","properties":{"name":"Nowy Bocianek","place":"neighbourhood","sector":"S02"},"geometry":{"type":"Point","coordinates":[20.64592,50.88769]}},{"type":"Feature","properties":{"name":"Jeziorany","place":"neighbourhood","sector":"S03"},"geometry":{"type":"Point","coordinates":[20.60747,50.89465]}},{"type":"Feature","properties":{"name":"Ślichowice","place":"suburb","sector":"S03"},"geometry":{"type":"Point","coordinates":[20.5854,50.88399]}},{"type":"Feature","properties":{"name":"Osiedle Związkowiec","place":"neighbourhood","sector":"S07"},"geometry":{"type":"Point","coordinates":[20.65282,50.89674]}},{"type":"Feature","properties":{"name":"Wielkopole","place":"suburb","sector":"S01"},"geometry":{"type":"Point","coordinates":[20.64782,50.86604]}},{"type":"Feature","properties":{"name":"Malików","place":"suburb","sector":"S09"},"geometry":{"type":"Point","coordinates":[20.57316,50.89086]}},{"type":"Feature","properties":{"name":"Osiedle Okrzei","place":"neighbourhood","sector":"S01"},"geometry":{"type":"Point","coordinates":[20.62646,50.88037]}},{"type":"Feature","properties":{"name":"Park Sosnowy","place":"neighbourhood","sector":"S03"},"geometry":{"type":"Point","coordinates":[20.60538,50.8514]}},{"type":"Feature","properties":{"name":"Osiedle Wietrznia","place":"neighbourhood","sector":"S05"},"geometry":{"type":"Point","coordinates":[20.64012,50.85301]}},{"type":"Feature","properties":{"name":"Nowa Wietrznia","place":"neighbourhood","sector":"S05"},"geometry":{"type":"Point","coordinates":[20.64585,50.85111]}},{"type":"Feature","properties":{"name":"Wileńska Park","place":"neighbourhood","sector":"S07"},"geometry":{"type":"Point","coordinates":[20.65932,50.885]}}]}